0 COSMOS 1191 DEB
1 27897U 80057K   13283.75708417 -.00000314  00000-0  00000+0 0  3889
2 27897 067.1781 063.0085 5797861 092.1240 293.5961 01.99192285 78666
0 COSMOS 1191 DEB
1 27897U 80057K   13292.86300956  .00000293  00000-0  00000+0 0  3893
2 27897 067.1911 062.4339 5800644 091.9333 343.3016 01.99185530 78851
